KUIPER-00131            
1 68573U 26072A   26099.50425844  .00019009  00000+0  52551-3 0  9993
2 68573  51.8689 149.0990 0006957 121.8629 238.3035 15.37035521   811
