{
  "norad_id": 68573,
  "name": "KUIPER-00131",
  "history": [
    {
      "epoch": "2026-04-09T12:06:07.929216Z",
      "apogee_km": 459.634842241534,
      "perigee_km": 450.12738084113516,
      "latitude_deg": -2.7947444446754602e-05,
      "longitude_deg": 129.8144365145572,
      "height_km": 458.14344032725955,
      "semi_major_axis_km": 6833.018111541334,
      "eccentricity": 0.0006957,
      "inclination_deg": 51.8689,
      "raan_deg": 149.099,
      "arg_perigee_deg": 121.8629,
      "mean_anomaly_deg": 238.3035,
      "mean_motion_rev_day": 15.37035521
    }
  ]
}